[
    {
        "CCSDS_OMM_VERS": "3.0",
        "COMMENT": "GENERATED VIA SPACE-TRACK.ORG API",
        "CREATION_DATE": "2025-05-03T22:56:49",
        "ORIGINATOR": "18 SPCS",
        "OBJECT_NAME": "NAVSTAR 76 (USA 266)",
        "OBJECT_ID": "2016-007A",
        "CENTER_NAME": "EARTH",
        "REF_FRAME": "TEME",
        "TIME_SYSTEM": "UTC",
        "MEAN_ELEMENT_THEORY": "SGP4",
        "EPOCH": "2025-05-03T12:46:13.233504",
        "MEAN_MOTION": "2.00571915",
        "ECCENTRICITY": "0.00878290",
        "INCLINATION": "55.2796",
        "RA_OF_ASC_NODE": "105.7192",
        "ARG_OF_PERICENTER": "242.6169",
        "MEAN_ANOMALY": "116.4737",
        "EPHEMERIS_TYPE": "0",
        "CLASSIFICATION_TYPE": "U",
        "NORAD_CAT_ID": "41328",
        "ELEMENT_SET_NO": "999",
        "REV_AT_EPOCH": "6766",
        "BSTAR": "0.00000000000000",
        "MEAN_MOTION_DOT": "0.00000037",
        "MEAN_MOTION_DDOT": "0.0000000000000",
        "SEMIMAJOR_AXIS": "26559.614",
        "PERIOD": "717.947",
        "APOAPSIS": "20414.750",
        "PERIAPSIS": "19948.209",
        "OBJECT_TYPE": "PAYLOAD",
        "RCS_SIZE": "LARGE",
        "COUNTRY_CODE": "US",
        "LAUNCH_DATE": "2016-02-05",
        "SITE": "AFETR",
        "DECAY_DATE": null,
        "FILE": "4718184",
        "GP_ID": "286781321",
        "TLE_LINE0": "0 NAVSTAR 76 (USA 266)",
        "TLE_LINE1": "1 41328U 16007A   25123.53209761  .00000037  00000-0  00000+0 0  9997",
        "TLE_LINE2": "2 41328  55.2796 105.7192 0087829 242.6169 116.4737  2.00571915 67667"
    }
]